{"type":"FeatureCollection","properties":{"source":"Yandex Maps constructor constructor:92b89ca0f6fa3931dc3edafbcb32ecaa7068e7d8b77ff39c6b0e9912cc57113b","title":"Зоны доставки №1 Гранд Гурмэ","lastUpdated":"2026-02-23T07:08:55.000Z","mapCenter":[38.023708180236824,55.60187988337284],"mapZoom":8},"features":[{"type":"Feature","properties":{"key":"ttk","name":"Зона 1 (в пределах ТТК)","description":"Зона 1; Интервалы доставки:; с 10:00 до 18:00; Временное окно 3 часа","originalTitle":"Зона 1 \nИнтервалы доставки:\nс 10:00 до 18:00\nВременное окно 3 часа","fill":"#1bad03","fillOpacity":0.302,"stroke":"#1bad03","strokeOpacity":0.2,"strokeWidth":5,"zIndex":1005,"balloon":[37.62199837207871,55.74744244702348]},"geometry":{"type":"Polygon","coordinates":[[[37.57472331937548,55.791792178950224],[37.57425237881256,55.791653609362406],[37.573861140694305,55.7914552376242],[37.573469902576086,55.79117828365787],[37.57261710559609,55.79055979732065],[37.57152343772325,55.789745801321516],[37.57075626536466,55.78922394169828],[37.56940294491364,55.788274507439695],[37.56795404104371,55.787245996683524],[37.56636375692237,55.78610904897229],[37.564844216423765,55.78501912659403],[37.56340048232566,55.783982932759116],[37.562226353388866,55.783145901980056],[37.561215406083804,55.7824371691547],[37.5599060849765,55.78146155271743],[37.558528312537014,55.78047188864531],[37.557677357327464,55.77975369448751],[37.55717203865613,55.77916899063213],[37.55632866813326,55.778080207537045],[37.55544832513029,55.77693854980254],[37.55504302234599,55.776355986961576],[37.55467407399493,55.775940438133205],[37.55416773473759,55.775413864214705],[37.553726810477855,55.77500900162477],[37.55303427956136,55.774641784181284],[37.55229641158696,55.77436702627862],[37.55163779902616,55.774200260665324],[37.54966698082865,55.77398026191893],[37.5482711937506,55.77382674576231],[37.5474391897608,55.77371803818063],[37.546930781353694,55.77360463642677],[37.546486745962945,55.77347309193383],[37.545871049195256,55.77326366446164],[37.5452467001476,55.772958842406275],[37.544821872845176,55.772688503224366],[37.5444485266531,55.772420631061536],[37.54379246697938,55.77181162847062],[37.543314233437734,55.77134481022424],[37.54260573008928,55.770680685817],[37.54206372378399,55.770223068989736],[37.5413363097818,55.76978397725101],[37.5400455104167,55.76912391527749],[37.53920276828988,55.768524734073914],[37.538367709651965,55.767818185452064],[37.5377987183024,55.76711883799309],[37.53733198046011,55.76604030610758],[37.53692506777356,55.76509122618791],[37.53641224458304,55.764143351754974],[37.53582737517291,55.76295802721448],[37.535589256355294,55.76238713795949],[37.53520840812029,55.76144836605436],[37.5348105617961,55.760479891100644],[37.53451422297153,55.76006823940337],[37.53435554266196,55.759820891810755],[37.53412176050001,55.75922266192412],[37.53391557815522,55.758672821091395],[37.53352745225636,55.75771123670336],[37.533337240851694,55.757160860455215],[37.53295279191748,55.75632149728632],[37.53266138890799,55.75568097551654],[37.53211310265229,55.754452042508895],[37.53183980081143,55.75384623764632],[37.531486634681855,55.75296700966105],[37.531344999374255,55.75247293152357],[37.5313304995713,55.75172820983302],[37.53140436147181,55.7511168315303],[37.53163021385952,55.75045715333733],[37.53179886001284,55.75009100335077],[37.53206728749014,55.74950249815104],[37.532227351172274,55.74887542174822],[37.5323956997283,55.748171565334886],[37.53254555416745,55.747538237903704],[37.53271108835811,55.7469425039278],[37.53285336808495,55.74640748878078],[37.53308803254703,55.74552916409067],[37.53340040921746,55.744419331190876],[37.533595160178024,55.743718049229564],[37.53392522418934,55.74269863351502],[37.53460399347741,55.741506507336204],[37.534934595366785,55.7409981923735],[37.53581533639826,55.739634929746906],[37.536202404695175,55.739116659883344],[37.53704004394436,55.738155383393625],[37.53797476226111,55.73740840104442],[37.53869042416464,55.736901734929226],[37.53968044813587,55.73627461178473],[37.54070449028624,55.73561751906927],[37.54154712974413,55.735117958960444],[37.54229177863397,55.734562474114014],[37.542645037359996,55.734210572289534],[37.5429261119225,55.73379550151331],[37.54308744024396,55.733363977356554],[37.5432418021736,55.732679044508515],[37.54336023472179,55.7321246870749],[37.54367460659097,55.73151756321357],[37.54409274163078,55.73096880761029],[37.54484305420548,55.73018133525279],[37.545820991753224,55.72917913318641],[37.546291840670115,55.728671968011135],[37.547162337268695,55.72777962865478],[37.548088777047575,55.72677641837977],[37.54914005664302,55.72569050832927],[37.550188994683936,55.72469190031092],[37.551068061664296,55.7240177013666],[37.55209733234952,55.7233556013099],[37.552757711808304,55.72297340217843],[37.55366093191509,55.72252191938154],[37.55456370663804,55.72213873408579],[37.556216068616045,55.721573211034254],[37.55738078701892,55.72128136301841],[37.55893187975761,55.72086898966762],[37.560012484082534,55.72055682644052],[37.56182470880614,55.72000106287113],[37.56356772157706,55.7194552059379],[37.56520388557423,55.71891429870092],[37.56699613614563,55.7183364982628],[37.568811149279725,55.71775235842455],[37.570768448443594,55.71711053810784],[37.57255230095891,55.7164080749437],[37.57382699710841,55.71587817385607],[37.57481325842775,55.715463322252425],[37.57560503893139,55.71500757573826],[37.57616031444601,55.714625256436385],[37.57712379232459,55.71391927493982],[37.578257841082454,55.71310293096286],[37.58051566537001,55.711358322712854],[37.58120614136941,55.71082453272003],[37.582196352038,55.710103336734896],[37.583044295025026,55.70947995068351],[37.58385468708584,55.70894438887072],[37.58455569906147,55.70852454553369],[37.58531035521746,55.70810469767843],[37.58633845914589,55.70756369066205],[37.58778475689422,55.706927064806976],[37.589562209934165,55.706385741838176],[37.591575768562535,55.70579248948996],[37.59377785383825,55.705186897501946],[37.59600983439872,55.7045539269674],[37.59880025409094,55.70377423453804],[37.60189330224343,55.70297546402359],[37.60358757839467,55.70251325844094],[37.60478518471984,55.70212909997107],[37.60637439356116,55.70160634187687],[37.6069953550515,55.70136820403442],[37.60772962482104,55.70118248854834],[37.60849608109881,55.701045242262595],[37.60919214444157,55.70097068804865],[37.61045749159607,55.70094249904644],[37.611803305021056,55.7010566910029],[37.61238863693163,55.70116308908015],[37.613598618370034,55.70150061707873],[37.61427066431461,55.70174893550631],[37.61492318795063,55.70204985636008],[37.61559277252256,55.70244910202957],[37.61612604827565,55.70283761811936],[37.61664481379953,55.70331808876877],[37.61721801501623,55.703873797835676],[37.61783184512442,55.70440107640174],[37.618444532006194,55.70477962297661],[37.619171982262436,55.7051740434058],[37.61993803874278,55.70546915959573],[37.620884330876066,55.705685350873146],[37.62179199480311,55.70578251308232],[37.622664251372974,55.70578910854403],[37.623773614120644,55.70569223745377],[37.62559429814953,55.705514492329435],[37.62674603897529,55.70539678288794],[37.62901974769458,55.70518138007807],[37.63137806641169,55.70493712928362],[37.6335941814033,55.70471927903436],[37.63763657556144,55.70430632646971],[37.6423253820921,55.70383849494712],[37.64659545884381,55.70348055363567],[37.64926397101506,55.70325757258256],[37.65043623925386,55.70318906930629],[37.65228837602829,55.703146816717314],[37.65419924827874,55.703125782653444],[37.65531329322146,55.703100792792625],[37.65613250956394,55.70313070689508],[37.65686697620164,55.70321533580301],[37.65777063391479,55.70337881822051],[37.65844466332458,55.703598104492215],[37.65905026642632,55.703839798421455],[37.660127411489874,55.704430160365405],[37.661186169622475,55.70502290275471],[37.66249169098446,55.70574891285947],[37.66421964393529,55.70671535623616],[37.66597143159468,55.70768090985084],[37.6673520441054,55.70843612067122],[37.66928106753934,55.70948053673137],[37.671752980722694,55.71080590744634],[37.673214242871595,55.71157408609084],[37.6745135022572,55.712117230446744],[37.6766732156254,55.71277016292122],[37.68083620401115,55.71399042059492],[37.681956193833074,55.714432878317],[37.68331548703048,55.71503060047002],[37.6840836465267,55.71536152515807],[37.68511145643835,55.715680662606985],[37.687752353142955,55.716436298566265],[37.689971341515296,55.717097228466905],[37.69249167764328,55.71767329047956],[37.69509026800564,55.71831424779262],[37.69696623812506,55.718795182956406],[37.69971739647883,55.71961734155015],[37.70117363895,55.71999985811655],[37.702790813962146,55.72021280971271],[37.70365965265909,55.72039834319639],[37.70627581630605,55.721214685161954],[37.70817318704394,55.721903105704314],[37.70959033734487,55.72239319917305],[37.710664164891966,55.722719791536626],[37.711442215231514,55.72300216483597],[37.71206580307242,55.72332500973401],[37.71245508801789,55.72370441997346],[37.71266153519604,55.72413935843962],[37.71266624458611,55.72454756184168],[37.71251045095527,55.72502716638055],[37.71175418733303,55.72567264824435],[37.710756825283056,55.72651610053779],[37.709644308486844,55.727410085409176],[37.70846803163053,55.72837170608297],[37.7071624382442,55.72944735026514],[37.70575685473568,55.73058906786359],[37.70311318897804,55.73258809484838],[37.70229636407992,55.733319089614795],[37.70171129685745,55.73382568676363],[37.70111550079895,55.7343443844587],[37.70024713141666,55.73508371185088],[37.69932037966017,55.735981525623146],[37.69876901741986,55.736630181318134],[37.69824642032659,55.73741908264857],[37.69774131217113,55.73839612707792],[37.69756886802602,55.739002670734315],[37.6974214066828,55.73996720151485],[37.69748253105038,55.74145871910102],[37.698000243121804,55.74298217511491],[37.69863558448109,55.7440101724893],[37.699296185492706,55.745054420414995],[37.69972075211117,55.74584446639571],[37.69984938291137,55.74661232038539],[37.699740138571485,55.747250408043186],[37.699313925963764,55.74824115978718],[37.69863121533612,55.74909960420279],[37.69784260414665,55.750044681114026],[37.69703616738202,55.750780430782385],[37.69629227065018,55.75157791567145],[37.695450668965805,55.75248491785655],[37.69472561346165,55.75340884806579],[37.69409075627024,55.754256524224346],[37.69355595085024,55.755200686512566],[37.6930661104438,55.75660917396654],[37.69295123466332,55.75718922318547],[37.69282329948867,55.75804188737132],[37.69270905289438,55.759166959514474],[37.692631382744736,55.760298143114014],[37.692548325654315,55.76141119296413],[37.6926012665575,55.762522722243624],[37.6926809865709,55.763539715656286],[37.69278563851225,55.764644018715295],[37.692877619791076,55.76577834767789],[37.692863405864166,55.76637271835257],[37.6927480357191,55.76704490762729],[37.69252415379888,55.76774843791988],[37.69220703813795,55.768477883487364],[37.69194316408364,55.7689820418478],[37.69156785610841,55.76956522918379],[37.6911066168013,55.77008229689927],[37.69077407320513,55.77035388363982],[37.68663157211854,55.772874407611525],[37.68515718171993,55.77389571921682],[37.68380286423219,55.77491976091179],[37.682642907865656,55.77580327635227],[37.68188590388738,55.77633507826225],[37.68101690113446,55.77684150858253],[37.68006206769311,55.777335838562536],[37.678117679313566,55.778049357969934],[37.676185931623756,55.77874321515675],[37.67426297559768,55.77944537519524],[37.67287671949513,55.779947612394],[37.67147688779788,55.780546396539215],[37.67033466919074,55.781114845722094],[37.668874485165574,55.781869159484906],[37.66783625107168,55.78241862455315],[37.666706716335774,55.783128666471875],[37.66548874017176,55.78400211629933],[37.66434298490399,55.78489982076344],[37.662894778887505,55.7860378144918],[37.66161771850367,55.78699979544055],[37.660428497697836,55.78790092248952],[37.659353548040805,55.78876405788944],[37.65865748057991,55.7892711811239],[37.65749741779876,55.79018171117323],[37.65627206306848,55.79110434055308],[37.6550399909758,55.792043609469665],[37.65458682849354,55.792354371832],[37.654058564158916,55.792659087232366],[37.65343374029973,55.79293660025383],[37.652755272260265,55.79320806690321],[37.65119221495685,55.79361528127792],[37.650061663857066,55.79377491999227],[37.648873445263476,55.79388704019507],[37.647545751801104,55.79385499819976],[37.646538582316,55.793756390763214],[37.64484376149468,55.793466348800514],[37.64293436395224,55.793067505248814],[37.64112152593426,55.79270402167331],[37.64020890431694,55.79252445205711],[37.639366355410154,55.79235986667191],[37.63840327473575,55.792198160343865],[37.63786004359119,55.79212091342447],[37.63667647695385,55.79205068880708],[37.636001545155715,55.79201784115399],[37.634956133237615,55.791966418330695],[37.63378551664056,55.79190666622964],[37.632826040184426,55.791904704315975],[37.63224035470027,55.79192887595932],[37.63162564687639,55.791986546404154],[37.63118686472275,55.79204220542971],[37.630701934953436,55.792122490378745],[37.63027439764675,55.79220277907242],[37.62954430375807,55.79234464132722],[37.628929811375315,55.792461930549294],[37.6283087467292,55.792577666257394],[37.6281400695226,55.79260286618083],[37.62782118861118,55.79262202161019],[37.62478352027219,55.79279520305907],[37.62392588393968,55.79282762887181],[37.62295559482854,55.79285254511743],[37.62159336792511,55.792933324061465],[37.619015775539204,55.793103566647595],[37.61814105060179,55.79314268868637],[37.61725258982074,55.79318337779224],[37.61616231376637,55.793209449854395],[37.61476752316839,55.79322035305559],[37.613724122906476,55.79318687297541],[37.60529833192743,55.792860302128624],[37.60139035339278,55.79270012378131],[37.600510588835895,55.79266083464381],[37.59975957031171,55.792603411995884],[37.59874530570754,55.792518522383645],[37.59753764109859,55.79241472059879],[37.596031245460566,55.79228559236431],[37.59484621199016,55.79225156309924],[37.593867457156826,55.79223052051779],[37.59259353360329,55.79222753908885],[37.59135575700719,55.79222863344046],[37.590215179055754,55.79222465125659],[37.58939008022362,55.792222679816156],[37.588496074289374,55.79222216249177],[37.58683134842948,55.792218092510936],[37.5852130982581,55.79220375462592],[37.584279250453264,55.79220630853671],[37.58365407621896,55.792228339147634],[37.58300889518392,55.792265848576434],[37.582579016305786,55.79225791037285],[37.582015389694796,55.79224807681652],[37.58147340211486,55.79222299725135],[37.5803990867249,55.79214898478748],[37.57934962710808,55.79208388808359],[37.57789014745795,55.791997765787386],[37.5768694903355,55.7919525618449],[37.575940894801,55.791913337203965],[37.57528545504484,55.791864257408136],[37.57472331937548,55.791792178950224]]]}},{"type":"Feature","properties":{"key":"mkad","name":"Зона 2 (в пределах МКАД)","description":"Зона 2; Интервалы доставки:; с 10:00 до 18:00; Временное окно 4 часа","originalTitle":"Зона 2 \nИнтервалы доставки:\nс 10:00 до 18:00\nВременное окно 4 часа","fill":"#ffd21e","fillOpacity":0.302,"stroke":"#ffd21e","strokeOpacity":0.102,"strokeWidth":5,"zIndex":1004,"balloon":[37.60700467489961,55.741670712472704]},"geometry":{"type":"Polygon","coordinates":[[[37.36984701553444,55.745605885652544],[37.37791445828794,55.72691338209262],[37.38601659680321,55.713390824331945],[37.41059822750608,55.69249519624433],[37.417876112935275,55.683270651807824],[37.42693871973112,55.669084105982],[37.45948348898685,55.63797688669206],[37.505468133910185,55.599410276032486],[37.51801559354137,55.59416149566159],[37.59217426621986,55.576271466964464],[37.615493803991086,55.57549345391253],[37.658973324840595,55.57204140389208],[37.67865314874189,55.57226052589649],[37.69833297264326,55.57948174694429],[37.728300437193845,55.59046976527095],[37.75390309090446,55.60155302160719],[37.80510839832571,55.63031456381178],[37.83542123484786,55.65090686741212],[37.84064319848054,55.65946584257844],[37.83357766529668,55.684458692057134],[37.82967486834755,55.697209658059826],[37.83492620177566,55.7044196198044],[37.83588600077995,55.708236117634875],[37.84019854642271,55.73408151870857],[37.8441623342648,55.760887747741386],[37.843131692269125,55.78090823524825],[37.84133669903025,55.81341170095764],[37.8373278399535,55.82147593102295],[37.832460673992024,55.82801669147068],[37.7003199746143,55.89366501198984],[37.67488864041686,55.89511188111357],[37.630090051502926,55.899367761014986],[37.581858235049985,55.91056585968839],[37.56349549818685,55.91019222730229],[37.54238617929245,55.90789015486373],[37.53088989750743,55.90645580522392],[37.519393615722436,55.9019354744693],[37.4964010521525,55.892507377105865],[37.46957893570715,55.88329414746035],[37.444282997950324,55.88159053619132],[37.42236531471647,55.8755277824556],[37.40456750452949,55.86753362662576],[37.394487713976865,55.854856615583934],[37.39218091607464,55.84494622779851],[37.395120420856266,55.837484606636146],[37.38932645678663,55.811345513029444],[37.38215920170137,55.79795508851157],[37.3701854280614,55.78842912364837],[37.36984701553444,55.745605885652544]],[[37.53565143243426,55.76249448469907],[37.53616595061971,55.76364951186184],[37.53666646901223,55.7645984940011],[37.53718343774143,55.765601191207445],[37.53754678830477,55.76654197687862],[37.53768519599518,55.766899270128576],[37.53788797670195,55.76725051165889],[37.53841155531211,55.76785016335548],[37.53893568177769,55.768298617584776],[37.53955478126657,55.76877751455083],[37.540277996113375,55.769229061293466],[37.541134339823756,55.769699240780426],[37.541666855277924,55.76998159629338],[37.542141800203005,55.77027979247951],[37.54246941756169,55.77056555024998],[37.543049847715736,55.77107853749507],[37.54356046365588,55.77158438698494],[37.54409574694438,55.77208806349642],[37.54468690218979,55.77261441199834],[37.54531024394341,55.77299561246438],[37.546013118308686,55.77331200158337],[37.5467803656904,55.77357396104176],[37.547628994923116,55.77374863700692],[37.54849908182796,55.7738567906898],[37.55092564687106,55.7741079815283],[37.55144382453932,55.774170269835395],[37.5519298156995,55.774250700120426],[37.55236216267937,55.77437950893162],[37.552740865479,55.77452041195311],[37.55306509432379,55.77465370500321],[37.5532927636441,55.7747869976081],[37.553688456794276,55.77499599906912],[37.55392194361949,55.775173659995176],[37.55438891726994,55.77565216191817],[37.554872253456324,55.77616335103009],[37.555382950296625,55.77685659144505],[37.555900088682364,55.777528266552366],[37.55651057642953,55.778309676578125],[37.55706099967013,55.77902376896067],[37.557577124586004,55.77964483425744],[37.55826554571149,55.78025080352064],[37.558808922320324,55.78067064945698],[37.56011937087753,55.781634275057556],[37.56174085372107,55.78280895609143],[37.5626093493399,55.78342586907721],[37.564352277120086,55.784663660613205],[37.56536430747381,55.785391008954086],[37.56645449096646,55.78618368875262],[37.567647047903236,55.78703449527066],[37.56898670870139,55.78798343051268],[37.570311109103365,55.78891403241698],[37.57149836048506,55.78973243090813],[37.572710170620255,55.79062265016744],[37.573971186726986,55.79153562835482],[37.5743591221598,55.7916941783245],[37.57481143060898,55.791816459977426],[37.575312018820455,55.791872250611014],[37.57576969168771,55.79189177356616],[37.578316532966525,55.792025594534536],[37.580765557435384,55.79218152912165],[37.582176734653714,55.79225375403231],[37.583207373468376,55.792257276591954],[37.58458737000797,55.79221262438224],[37.587724534556955,55.7922288577576],[37.589652022843076,55.79222605760116],[37.59236974279298,55.79223426401064],[37.59430758213737,55.7922491327568],[37.5962091549911,55.79230397853448],[37.59827422925697,55.79248832459923],[37.601352951854835,55.79270898301085],[37.60524661264191,55.792854910880095],[37.60879604397252,55.79300040645323],[37.611506812685384,55.7931002564006],[37.61471820988285,55.793219331277264],[37.61705331773907,55.79319613929272],[37.61962068158378,55.79305736364922],[37.62205174258623,55.79289978219462],[37.62484319923159,55.79279342790009],[37.627872649540166,55.79262081060887],[37.62870660699626,55.79250450010422],[37.630138487515126,55.792227059525295],[37.63100132062781,55.792072869568074],[37.6317721204438,55.79196987674128],[37.6324232266828,55.79191379355776],[37.63331774339055,55.791901328569324],[37.63427904901153,55.79193369676975],[37.63517598161612,55.79198419873078],[37.63645481985908,55.79203427092131],[37.63733674170449,55.792080013968906],[37.63791102678285,55.792135232519016],[37.638924445117475,55.792275892119015],[37.63974876817336,55.79243105565427],[37.64092534549853,55.79266600339393],[37.64228071839533,55.79294316283285],[37.64319438414893,55.793126239259706],[37.64435652782048,55.79336211990908],[37.64535043949221,55.79357244476496],[37.64616881970511,55.79372020489964],[37.647065290442754,55.79382081629862],[37.64803211154147,55.79387273010502],[37.649010887329595,55.793875706183925],[37.64999211482443,55.79379814001625],[37.65111772060137,55.79363478515029],[37.65206001415606,55.79339195734592],[37.65304874345449,55.79309164077997],[37.65402842029778,55.792666183516424],[37.65471104249333,55.792273069881446],[37.65531561174977,55.7918449424173],[37.655887994498045,55.79139263151138],[37.65646144947688,55.79096359950857],[37.65713629064791,55.79044632719403],[37.65778323422804,55.789951463027855],[37.65844412006088,55.789439567880734],[37.659073881800666,55.78896285808807],[37.65978623464119,55.788423287278135],[37.6603365401834,55.78798885587482],[37.66095435364512,55.787488181859985],[37.661734005036074,55.78691576840674],[37.6623900680782,55.78641600404125],[37.663221414050476,55.78577753946315],[37.66398282616266,55.78518841775756],[37.66480833364648,55.78453982033638],[37.66550347122142,55.78400673234963],[37.66617376164774,55.783517923060316],[37.66690929400749,55.782981646019465],[37.6674049741734,55.78268297050454],[37.66836836691587,55.78213095854026],[37.66922974511923,55.78169804429577],[37.670376437088755,55.7810921925549],[37.67154858587032,55.7805244050788],[37.67264308702488,55.780041827436804],[37.673543806820376,55.77970247237099],[37.67436657712535,55.77939864134159],[37.6756357601537,55.778942138000474],[37.67687449779335,55.7785037833449],[37.67850703302344,55.77791125903388],[37.679706376228864,55.77747297662105],[37.68053535088872,55.77711643444481],[37.68081740933606,55.776940011551716],[37.68126308253552,55.77671646886334],[37.681886208032985,55.77634310538767],[37.68301444183119,55.77550838603727],[37.684074644207,55.77470697228832],[37.684821757943,55.77412217886339],[37.68600484916927,55.77328150198706],[37.68719622407331,55.77246664471822],[37.68835588657059,55.77176720974626],[37.68970425190166,55.7709965596999],[37.69076483506472,55.77034406673886],[37.6912391250557,55.769945661103144],[37.691565432546255,55.769557450127024],[37.69189618244553,55.7690588385324],[37.69212852880173,55.768619917507436],[37.69235182270273,55.76819723012944],[37.69255164727543,55.767703282027725],[37.69274272754338,55.76701271062057],[37.69282651945081,55.766561045467164],[37.69287033745799,55.76625022898702],[37.69287124012094,55.76593336138189],[37.6928171736151,55.76526469631672],[37.692758390915394,55.76444753888971],[37.692708401575274,55.763871756753524],[37.692617465439305,55.76282905141565],[37.69254391312975,55.761751534609225],[37.692584075883794,55.76076926692033],[37.69266039323961,55.75963205343141],[37.692750917884446,55.75869293736053],[37.69285192951461,55.75784918531021],[37.69297395014231,55.757099391540066],[37.69308645575472,55.756570815075],[37.69321094927135,55.756052111113135],[37.69344622913343,55.755414003496],[37.693658087897234,55.755018092722054],[37.69393138088322,55.75452878156206],[37.694271688144646,55.75400393150097],[37.69468170508127,55.75344431141157],[37.695074655685175,55.75293314462601],[37.69551817044591,55.75240695610661],[37.696101698278106,55.75177725944532],[37.696540386823514,55.751304877043175],[37.697169663744944,55.75066612065293],[37.697838467383605,55.750060256752725],[37.699298760922126,55.74830979141617],[37.699454878655686,55.74791025852066],[37.699622759629406,55.747516634268926],[37.69979659764549,55.74710759953408],[37.69982872554432,55.74673734108947],[37.6998517361453,55.74636899478231],[37.69979060025919,55.74606801972473],[37.69967600830635,55.7457262907804],[37.69950985997457,55.74538778087112],[37.69895866108656,55.74449288118126],[37.698464296372485,55.743750048293585],[37.69809324254308,55.74306929236041],[37.69778195485447,55.74237653174514],[37.697640629352975,55.74199936013694],[37.69752612594166,55.74146179496769],[37.69746048459766,55.741049847105494],[37.69741939240581,55.7404801489277],[37.69745395394896,55.739757650199806],[37.69753073769256,55.739187971942115],[37.69780827921215,55.73825136511704],[37.698318838882784,55.737289087716505],[37.69900679744257,55.73632694193357],[37.69997067031834,55.73532876274231],[37.701065585282706,55.73437960827278],[37.70219566939284,55.73341956684364],[37.703334888779516,55.732413558117635],[37.70447197308614,55.73152752453894],[37.705533538907474,55.73073920565413],[37.70696199855111,55.72960401752375],[37.70750526122664,55.72917458494128],[37.70801402740661,55.72875919581089],[37.70850153105569,55.72836281716676],[37.7090656333573,55.72790002342975],[37.709645500792526,55.727420525157136],[37.710182867637485,55.7269856745295],[37.71072946733875,55.72653222751001],[37.711324108757736,55.7260355368215],[37.711876160188645,55.72558557056288],[37.71225724051681,55.725254795239934],[37.712412455473995,55.725107915299006],[37.71253598081143,55.724937571542206],[37.71264341289486,55.724776309649585],[37.71268607605287,55.72460213374832],[37.71269655270269,55.72442795707936],[37.71269276820518,55.724271465706],[37.71260821168866,55.72398556111764],[37.712339008352245,55.72356095579362],[37.71173016452225,55.72312349502707],[37.710723848260095,55.72274510278578],[37.709670584147936,55.722424300422915],[37.70845865260153,55.72201279708765],[37.70707518879697,55.721492557121266],[37.705990474591445,55.72110607005487],[37.704993738475196,55.720793318853225],[37.704028454352915,55.72049481954551],[37.70326508219946,55.720285384612886],[37.70222568462299,55.720145078316044],[37.7011990891394,55.719985580521445],[37.699597540517104,55.719593903053294],[37.6975024654361,55.718953927788014],[37.69492164068306,55.718291669731904],[37.69203182221342,55.717594955700534],[37.68994855470641,55.717071518526375],[37.6843394211417,55.715449258574814],[37.6837865279731,55.715232926814906],[37.682893692130385,55.714856279126174],[37.68179466595283,55.71436068118357],[37.68039054746609,55.71384746474455],[37.67831187134467,55.71323584140767],[37.67500328407914,55.712283879377836],[37.673658166974526,55.71178515413529],[37.6720311177999,55.71093212653261],[37.67011439005169,55.70991553146444],[37.6680190059969,55.70877878957636],[37.66442547260273,55.70682823593933],[37.66087314572736,55.7048352041861],[37.65963449972631,55.70415828037922],[37.658993719053655,55.70381981405977],[37.65831002303682,55.70354192852388],[37.657282193030476,55.703273310805756],[37.65632087429586,55.70314532261541],[37.65547209512956,55.70311552103269],[37.65347722634642,55.70311650217628],[37.65091906949827,55.7031738119011],[37.648339454978014,55.70334017287456],[37.64543797537599,55.703562290473755],[37.64183241590795,55.703886817625985],[37.63577464684819,55.70450991682615],[37.63149887040204,55.70491485058198],[37.6266222791366,55.705404593310135],[37.62425858244238,55.70566096085305],[37.62262880518979,55.70580938247059],[37.621320893018975,55.705763947343854],[37.62009981736514,55.70552768381955],[37.61914704643161,55.705162494812754],[37.61856978476018,55.704857884051115],[37.61797316089243,55.70449098489023],[37.61742364332053,55.70406009167531],[37.61681813463544,55.70350121076692],[37.616165016740304,55.70285598867908],[37.61511627301548,55.70214714081414],[37.61411312684391,55.70167456839955],[37.61320587979453,55.70138213160772],[37.61275997269578,55.70125933721511],[37.612147108235796,55.70111068731332],[37.611586567151534,55.70103150169267],[37.61065860403205,55.700945835287676],[37.60968244235001,55.70094414787647],[37.608824460264,55.70100136072437],[37.60788097228826,55.701164256093826],[37.60731299357455,55.70127868105214],[37.606734286024775,55.70145369264652],[37.605309949218835,55.70193562156316],[37.60329812481946,55.70259653695933],[37.60135587021632,55.703106512311],[37.59633142217932,55.70446477112073],[37.59159329995487,55.70580029545822],[37.58937254827688,55.706416264421314],[37.5874951193528,55.707062512744514],[37.586293724486794,55.70759170990554],[37.585152748918105,55.70816125556571],[37.5839688580052,55.708851943890856],[37.58212849128379,55.710166898339644],[37.580499683469235,55.711379327433505],[37.576386496237866,55.71447023597711],[37.57497332024692,55.71538862965578],[37.5722324769139,55.71654704758405],[37.57109190966774,55.71699079736864],[37.56980113871679,55.717434542102886],[37.566340899201236,55.71854331267802],[37.56403290084239,55.71931342316857],[37.56036398674125,55.72045392205495],[37.55836609467835,55.72102716528285],[37.55645092851636,55.721525593173865],[37.5551687636819,55.72190896022094],[37.55419230174977,55.722288136242504],[37.552840192704984,55.722913259722304],[37.55144489261462,55.72376383418059],[37.54999948034251,55.72486138825655],[37.54844766721912,55.72637827055453],[37.54745602814839,55.72745625707672],[37.54593484263243,55.72903092260704],[37.54444006547305,55.7305939062255],[37.54378287864039,55.731342660205755],[37.54341537038129,55.73196426721689],[37.54322656762872,55.732706947720175],[37.54305814088166,55.73352636511149],[37.54271994961551,55.734148156427665],[37.54213199424687,55.73471372169867],[37.5409208426083,55.735493732429084],[37.539500390408904,55.73636364189013],[37.53847801242408,55.73705016875619],[37.53716622073968,55.738035796332674],[37.53632906541202,55.73899011153851],[37.535824265351344,55.739602089104],[37.53502978671714,55.740867738402336],[37.53457353880174,55.741565611436776],[37.534246036919015,55.74211216322672],[37.5339399927084,55.74271015162937],[37.53370368593215,55.74331418300928],[37.53352698074801,55.7440079071728],[37.53323559104087,55.74504204008009],[37.532887781932395,55.74628795582332],[37.532764860328356,55.74675809374577],[37.532622216635254,55.74723352255753],[37.532379154200925,55.74816620847875],[37.53208592184836,55.74940392779197],[37.53189805611939,55.749871606232134],[37.531582199505,55.75053502109168],[37.531395088923325,55.751198424633806],[37.53132739371602,55.75187216072181],[37.53135360639243,55.752357373447744],[37.53146663493805,55.75294659019916],[37.531635837222176,55.753392880788596],[37.532064245380305,55.75432779980412],[37.532509599774784,55.7553021353701],[37.53305652971116,55.75656354762819],[37.53351748020518,55.757677143927125],[37.53400123039409,55.75890302084941],[37.53440546910927,55.75989068516298],[37.53459893515732,55.760226492020706],[37.53483531654963,55.760519949559054],[37.535100613683106,55.761131167592026],[37.53565143243426,55.76249448469907]]]}},{"type":"Feature","properties":{"key":"zone3","name":"Зона 3","description":"Зона 3; Интервалы доставки:; с 10:00 до 18:00; Временное окно 4 часа","originalTitle":"Зона 3 \nИнтервалы доставки:\nс 10:00 до 18:00\nВременное окно 4 часа","fill":"#ff931e","fillOpacity":0.4,"stroke":"#ff931e","strokeOpacity":0.2,"strokeWidth":5,"zIndex":1003,"balloon":[37.60440391424754,55.73473134271057]},"geometry":{"type":"Polygon","coordinates":[[[37.8731143445312,55.59393632780209],[37.91606501109942,55.58680023348216],[37.95593843551567,55.62370841530391],[37.98058042676162,55.68682244117711],[37.9890729910404,55.73965034193893],[37.988691578186234,55.79924832215397],[37.98251481228911,55.83645815578157],[37.93611986205584,55.89736637697683],[37.9110137602547,55.91712217296056],[37.88114468066486,55.92237567962235],[37.814196743653085,55.947235788182994],[37.76166836230543,55.968806768256414],[37.716227957886645,55.974586414619026],[37.63540037957865,55.97890149874934],[37.62768185017493,55.984879236842296],[37.57910791305645,55.98845054762072],[37.54323691783249,55.98171484504962],[37.51156851006426,55.97532446980642],[37.45260094875304,55.97340713713563],[37.42045985322229,55.96321295930181],[37.4150752261722,55.960559349646694],[37.414700341236035,55.95737737689806],[37.40026500448086,55.95976585913364],[37.39339065885715,55.95860957878092],[37.386520258506245,55.95489851137629],[37.38179759800364,55.953870181263895],[37.375497404338134,55.95384557238733],[37.35750490363942,55.96129653042877],[37.346003909828035,55.954617021889575],[37.33787953625272,55.936735034961515],[37.27028767077709,55.896342128857235],[37.22123543231272,55.84089009539746],[37.21973483745467,55.775187898666225],[37.23750106887414,55.7565159550688],[37.24771419970771,55.688992762700096],[37.25794635401583,55.69170466243783],[37.271955058616925,55.693252876699475],[37.2719437013668,55.6818769850231],[37.27798595481352,55.67485655395136],[37.24363094817116,55.663541768157934],[37.26915421236707,55.65160942982211],[37.26436346867145,55.624743396305504],[37.48858652761055,55.51464014931226],[37.5076526522615,55.521841435610774],[37.52422090308978,55.52220514634822],[37.53988646771287,55.51493636579594],[37.52671292100786,55.50708170489474],[37.57205016460372,55.498407850820314],[37.6146094019125,55.47935217317727],[37.72942937383054,55.496492790515866],[37.87180302588001,55.560172512561635],[37.8731143445312,55.59393632780209]],[[37.84118664355127,55.81345711336218],[37.84427638923865,55.76106810004266],[37.83500651578542,55.70414967526611],[37.82985651537904,55.69836942648786],[37.8407710784762,55.65949907663415],[37.83560751431668,55.650989207884656],[37.81976034195859,55.64033398811177],[37.79457490435903,55.62409964117942],[37.763215700411735,55.606877434846744],[37.73734663891563,55.59422126772349],[37.68521338674575,55.57441338918838],[37.678793867269206,55.57227945010256],[37.66658025611372,55.571653142713586],[37.646899375060784,55.572972051211885],[37.615054956887825,55.57542232688367],[37.59994752296776,55.57583021525203],[37.59183504142096,55.576312580865036],[37.57986017889275,55.57912885569393],[37.518244175469434,55.59385513011554],[37.5110869906505,55.59701366012445],[37.50565163744007,55.599359084715594],[37.50150374455683,55.60279771145175],[37.431039494466354,55.6650425234751],[37.4270144155234,55.66902099246665],[37.41831094007405,55.682571547253154],[37.410505911114846,55.69269054247126],[37.3866778706598,55.71273422128963],[37.36975143626182,55.746076228827654],[37.369914416533334,55.747353449998016],[37.37007135521184,55.75660483478105],[37.37036001544652,55.788374432589],[37.38201595248531,55.798032517616086],[37.387654899174535,55.806457313301266],[37.39658129077608,55.83718852151828],[37.392970369375604,55.84352063551164],[37.39528478172227,55.85518414684505],[37.40446564914713,55.86684414348762],[37.412350007518214,55.871005132182454],[37.44597150746351,55.881641590188075],[37.46956960226374,55.88330000071587],[37.48975557699748,55.89026655143119],[37.49972961608365,55.89383375788983],[37.53109951683981,55.9064617242064],[37.551079543596714,55.9088088549828],[37.56951025671453,55.91044363619997],[37.58146075285236,55.91063211455903],[37.63214393349552,55.899156967884664],[37.65139162448418,55.897300563814134],[37.67038182340739,55.89544407055361],[37.700208305848555,55.893660059700764],[37.711066206136394,55.88825838919255],[37.736311339675694,55.875644942213725],[37.83268956448987,55.828086469750424],[37.83742764224057,55.821753238984776],[37.84118664355127,55.81345711336218]]]}},{"type":"Feature","properties":{"key":"zone4","name":"Зона 4","description":"Зона 4; Интервалы доставки:; с 10:00 до 18:00; Временное окно 5 часов","originalTitle":"Зона 4 \nИнтервалы доставки:\nс 10:00 до 18:00\nВременное окно 5 часов","fill":"#ed4543","fillOpacity":0.502,"stroke":"#e6761b","strokeOpacity":0.2,"strokeWidth":5,"zIndex":1002,"balloon":[37.67022257867983,55.73441897961202]},"geometry":{"type":"Polygon","coordinates":[[[38.02520697712571,55.97343818120266],[37.88615717272995,56.01667937727814],[37.68772206744514,56.0643442360444],[37.50296758351936,56.05066688965192],[37.47155664806573,56.05385663806875],[37.420550999110645,56.043651738108615],[37.345214275332324,56.030468385489414],[37.28882219045459,56.007502487865324],[37.24478949462994,56.00053030355768],[37.21354401875211,55.991976521814266],[37.21061956479907,55.98234287274659],[37.18623122818209,55.979459063205375],[37.11755425631121,55.96923259991777],[37.105010554704,55.963047665225034],[37.14120626306181,55.93876436254038],[37.1962847228845,55.92256316966476],[37.09971166031968,55.878768773775526],[37.09289787040564,55.813914426443816],[37.07641428954803,55.715552274067875],[37.115334722642075,55.68662709237708],[37.09722843641901,55.65667280216825],[37.099327404532,55.61545487360521],[37.120670196534675,55.58846616774005],[37.13580478833681,55.5747703127338],[37.15128270289288,55.56593378022578],[37.149134418130465,55.556756101153915],[37.15771245187712,55.54653882370072],[37.20568677163454,55.534999811375144],[37.233405048911486,55.53124718287872],[37.240594686339456,55.51250563112612],[37.26664693482819,55.502929005203356],[37.28167257438374,55.503221318878055],[37.30382743015497,55.490158547689745],[37.3268511309552,55.49149860225953],[37.324386371969545,55.485772590281044],[37.50194602608509,55.43619373007334],[37.51762170885886,55.42156948864296],[37.5463804714126,55.43117317075747],[37.56496705347291,55.423827236018326],[37.596066336519016,55.40168135671929],[37.83551442429898,55.42167490263473],[37.8785867689731,55.432262433811864],[38.106939366711345,55.53172434789439],[38.11103780760927,55.54205689794891],[38.091972678693,55.554520688455895],[38.097626788057994,55.56308936552913],[38.11380592388216,55.5680290467121],[38.12929841419854,55.580748040899024],[38.12723728126346,55.59451944435199],[38.160670493537374,55.614840401278926],[38.185177314209724,55.637092821837655],[38.22362756489865,55.72436685442297],[38.20459331975,55.73842559871997],[38.20478514882019,55.74744471244523],[38.204070998076226,55.75950263820317],[38.2131615478681,55.765997618117645],[38.2334049688516,55.771243878286555],[38.2400497383858,55.77358675857845],[38.246351185166105,55.77709052177908],[38.25132256149894,55.791295842322356],[38.2511884510482,55.80680626595579],[38.25589841007836,55.81424173586761],[38.261541777845714,55.82055934906925],[38.26252883076323,55.82721455778925],[38.26403086781161,55.83132897836319],[38.26364462971351,55.83563617150114],[38.22613661884925,55.84606805919839],[38.20321982502601,55.85813849410163],[38.20716803669598,55.871073819401055],[38.10347025238694,55.94709395847942],[38.04693111712714,55.97757184574919],[38.02520697712571,55.97343818120266]],[[37.935997799817045,55.89755133941851],[37.949228508008886,55.880288753856],[37.97906683581972,55.84080588665545],[37.982478794523686,55.83644857359501],[37.98886369787124,55.8005575280089],[37.988918776780764,55.76693335808555],[37.98828318009535,55.73504201188493],[37.97975922024412,55.68340459563674],[37.95449424605302,55.6216161723902],[37.91568339897207,55.5870395028094],[37.873181832286704,55.59381570205993],[37.87180521737312,55.56017775065578],[37.72992376542346,55.496849121043866],[37.61454340071511,55.479384437345],[37.57149438699675,55.49830269866082],[37.52719590484807,55.50737044446271],[37.539449999510694,55.514865589440575],[37.53183428979103,55.51889192283932],[37.52318861180966,55.522333538159614],[37.50805165885878,55.52217828724203],[37.488537340795645,55.51471843768894],[37.37262873492472,55.571475656009504],[37.26422457537881,55.62488493990169],[37.26929884211788,55.651747536938196],[37.24490798488144,55.66387015439322],[37.277831049254495,55.67491743260343],[37.27187168287152,55.68191628237709],[37.271820495504436,55.693122714284634],[37.2580209441623,55.69160152721025],[37.24756878967069,55.688965139641304],[37.23738774386143,55.75647010619084],[37.21954428408448,55.77529272886798],[37.221340900089274,55.840787343131],[37.2709260174418,55.896741500675546],[37.27160220554996,55.89712851889305],[37.27954147618088,55.90187886771986],[37.33774177112904,55.93674321746493],[37.34595742772073,55.95481636484962],[37.35620393661752,55.960689258689925],[37.37570630972095,55.95399497141615],[37.37975915889861,55.95389727470917],[37.38316033244938,55.954317238205306],[37.38613235255771,55.95517057721997],[37.39817037165629,55.95976614670351],[37.41432282631419,55.957786506114594],[37.41518927581109,55.96055224588246],[37.42107682058389,55.96346221561332],[37.45263696309219,55.97338021493244],[37.514367834586984,55.975473827096565],[37.57917015536302,55.98836989330625],[37.60049031828519,55.98675812119536],[37.6277395313156,55.984818292318934],[37.63539890498172,55.97884382275725],[37.716390380755215,55.97461694429911],[37.76171409486874,55.968797033623474],[37.79350817477949,55.95579215791539],[37.80865248247732,55.94956314346736],[37.81407074423743,55.947326645075684],[37.82253599543854,55.94412669168529],[37.85523146546938,55.93200021262106],[37.881214426199186,55.922404137070515],[37.91097877272742,55.91709244214132],[37.935997799817045,55.89755133941851]]]}},{"type":"Feature","properties":{"key":"zone5","name":"Зона 5","description":"Зона 5; Интервалы доставки:; с 10:00 до 18:00; Временное окно 5 часов","originalTitle":"Зона 5 \nИнтервалы доставки:\nс 10:00 до 18:00\nВременное окно 5 часов","fill":"#f371d1","fillOpacity":0.502,"stroke":"#b51eff","strokeOpacity":0.2,"strokeWidth":5,"zIndex":1001,"balloon":[37.66412563914221,55.77230125428276]},"geometry":{"type":"Polygon","coordinates":[[[38.425124205725155,55.82510293954056],[38.44120643518238,55.84986712382942],[38.43022010705727,55.87263864834635],[38.424512581932866,55.88576296480689],[38.425865775301666,55.88945445077701],[38.42503028611435,55.892759738065685],[38.42345092061426,55.89762539521512],[38.41633547570741,55.901212618804585],[38.413293918612304,55.906559352214124],[38.411704185018664,55.910161822505806],[38.41020121504189,55.91292706020007],[38.40891282178637,55.91578850449852],[38.40284042466424,55.928125676659164],[38.39864551180869,55.944075668283425],[38.38556172725595,55.952628844296655],[38.36391363380766,55.95875954391397],[38.36321760832373,55.964683055140235],[38.33969530969323,55.98465978033203],[38.31428708091012,56.000717690398695],[38.29840723104483,56.00186688312691],[38.28892235371971,56.00704580775034],[38.2754251848325,56.007492999465356],[38.266959986619334,56.01201896404642],[38.21852458294738,56.02854875755377],[38.197482616584935,56.03890104340127],[38.1955266065008,56.03979912529866],[38.1794424002868,56.0430828118695],[38.165074807842345,56.04425243944167],[38.07754560134695,56.07205963350048],[38.01352495561871,56.08093194220322],[38.001255691104156,56.08456308653498],[37.956497249032516,56.108951704992094],[37.949481721234044,56.11350806716828],[37.93756254986397,56.11972051818093],[37.874954709784475,56.13284471807595],[37.86476513910988,56.13768095471227],[37.84771236008871,56.14209002828152],[37.817269993665256,56.14669024887534],[37.7681165371539,56.15283665536765],[37.72096633782874,56.158668269289784],[37.66185733313696,56.17293124443365],[37.613806317424356,56.18360989517491],[37.60286857760134,56.1867522049535],[37.56062125767757,56.200406366940456],[37.54441140463092,56.20548550000591],[37.53913585405849,56.2055890999634],[37.523099280918395,56.20583621845472],[37.52377823435898,56.19206387753827],[37.51560437966597,56.182312789200715],[37.509368859350175,56.174741940252275],[37.50602504744921,56.17060201900191],[37.50465115221517,56.168937131686256],[37.50045872502132,56.1637389179185],[37.49906344480596,56.163114948563305],[37.496097741855166,56.16185443726026],[37.48809928033287,56.15835079832674],[37.48602360354522,56.15415968536978],[37.49578068934435,56.13834194368116],[37.374856549910405,56.134879745125595],[37.345196636664156,56.12654501450842],[37.30042861588094,56.12314406540639],[37.2403574012337,56.11779947086183],[37.21814340585461,56.11551051671785],[37.188828465775,56.10784368470901],[37.13362868134593,56.07459464819946],[37.14332442918964,56.06120084281654],[37.133872405286425,56.05438151863707],[37.10931418021147,56.04640806366979],[37.07049741267856,56.032378499449756],[37.032844596261576,56.02019986268727],[37.02740777545545,56.006223263661056],[37.02091281475934,55.992498747994404],[36.99828168462975,55.97626682952328],[36.94901177584507,55.92702056757784],[36.940470626236504,55.86233133256737],[36.926065165056826,55.85283796454208],[36.918298246857816,55.824229402662276],[36.9221838813661,55.78915202548714],[36.87873553032313,55.73800970669975],[36.88148424566957,55.72479784285908],[36.87121781621821,55.71895934225624],[36.87331583699668,55.71011613256757],[36.901251310551196,55.68333321452644],[36.96330569054738,55.66699995165902],[36.97263947597619,55.65080856366903],[36.97870805195281,55.64171118751403],[36.980147537629726,55.63928364395504],[36.980943293143206,55.63802113097784],[36.985126935320274,55.63118119813138],[36.99478561027458,55.63092516423692],[37.02097405902755,55.63024646408903],[37.01967933559505,55.62298345706232],[37.002377188761876,55.60947654937789],[37.00936512676746,55.5963294815304],[37.00365375443111,55.59305264904125],[36.993187428672535,55.56974226697172],[36.99225072592151,55.56753480160892],[36.98284050581697,55.550110659787194],[36.99015540956261,55.53937887953036],[36.978020014755735,55.529593832738],[36.97916209518429,55.5259072267143],[37.05320420473443,55.48209508924213],[37.086529210585056,55.467367556342026],[37.10530733834931,55.45882753412983],[37.12073806926304,55.451529573179315],[37.12989091236952,55.44739820792097],[37.13676924223135,55.44433978717673],[37.19336484573508,55.417962586372525],[37.20146139513433,55.40841350507396],[37.23798703794919,55.398555149896346],[37.25451899295413,55.397043086291724],[37.346193284417694,55.390504016521845],[37.39745744215306,55.376297959909614],[37.41713590652888,55.373036925244136],[37.471060815607,55.33755920863233],[37.60953879214924,55.33544273707758],[37.7219818231925,55.333890146436964],[37.73289812986154,55.33449651898685],[37.806282549208454,55.338613874379895],[37.83469389443815,55.34096313237747],[37.86303768487513,55.343548421268785],[37.971918860474574,55.36909484659256],[37.99597017215879,55.36240804474333],[38.14195045732033,55.37460980246575],[38.173362921463436,55.37713560975575],[38.1916008162987,55.385371136340126],[38.207770838543624,55.39266080210785],[38.225688561311756,55.40062802088552],[38.23248665456319,55.41151069865898],[38.24349045155019,55.41697135717953],[38.279167904369935,55.41780562308976],[38.287495542939794,55.42154248593122],[38.29721031707242,55.42649212767161],[38.305896081078565,55.43097516599224],[38.31484333231275,55.435663248316025],[38.33203925959609,55.462293543611125],[38.34582464469681,55.478129849246436],[38.35063280452737,55.486045606324524],[38.371413739839966,55.49390129794958],[38.405675813485054,55.538637047325295],[38.388636849547176,55.57732685918731],[38.37990556190405,55.603809467611036],[38.360187946135916,55.632216409857584],[38.39003145475721,55.666133618282615],[38.434738026624046,55.698600967541836],[38.419325809627885,55.72141352689968],[38.43153242085629,55.73397710463642],[38.45703346206622,55.73861101560006],[38.45012875500999,55.75046540406657],[38.43850336008776,55.759944812057576],[38.425124205725155,55.82510293954056]],[[37.87872253350848,55.43257312917232],[37.851416916370866,55.42541615165983],[37.835019507192484,55.42151057966128],[37.596156448841576,55.401685980481325],[37.57306799364138,55.41799590823153],[37.56490169703932,55.423845553188684],[37.54637464952516,55.43112683275568],[37.51775011491819,55.42165738754778],[37.501957268238556,55.43622669704976],[37.32467398119033,55.48584869081131],[37.326776833058,55.49147749502417],[37.303860039234756,55.49018610918708],[37.28171572160777,55.50317112878037],[37.26660952043589,55.502878830435],[37.24064573717175,55.5124748206018],[37.23344085369056,55.531264441432015],[37.20618961009921,55.53484235311599],[37.15758609181101,55.54669540170439],[37.15747880345038,55.54673189828037],[37.14921759968451,55.55671851309099],[37.15132045155219,55.56591221651184],[37.14217153092698,55.571294816461275],[37.13389682179145,55.576343722816965],[37.13128192786539,55.57900400884396],[37.12815204980848,55.5815668764908],[37.09939288502392,55.615491742469935],[37.097168374758326,55.65538706990509],[37.11523573468263,55.68657737773428],[37.077277162832445,55.715618766431035],[37.088950136465314,55.78329554955418],[37.10006491430462,55.8788475027012],[37.19622040529441,55.92252029289928],[37.14131284570888,55.93879943189636],[37.10523500357079,55.96303329325123],[37.1176025687437,55.96919144788191],[37.18330817887068,55.97891169349569],[37.210617903597694,55.98234689869847],[37.21371581737684,55.99188261355103],[37.244591472205414,56.000535499432175],[37.2887486023432,56.00757010367133],[37.344791395249445,56.03032312825858],[37.41989563470074,56.04355332547866],[37.47163810414512,56.05383347453829],[37.50329149338379,56.05064855253124],[37.50515279244212,56.05080840626355],[37.51355868149677,56.051400556982735],[37.55122213393362,56.054281299397736],[37.687723753289085,56.064309121173636],[37.8860265506721,56.01666318298473],[38.02525124939012,55.97340839157282],[38.046964961958516,55.977512311858995],[38.09676491052314,55.950709824630295],[38.10339373317256,55.94709028955542],[38.20711713337283,55.871118148319255],[38.203243416466854,55.858122624483975],[38.22618610771151,55.84604151747769],[38.2396206006914,55.84229153824857],[38.2635735332353,55.83561737085263],[38.263963080752255,55.831342011043475],[38.262572520653954,55.827289995705435],[38.26156199212745,55.820628310176474],[38.255941364347926,55.814176919203746],[38.25122308680437,55.80680603839732],[38.251287947889836,55.7918666441387],[38.245813623774986,55.7800186465651],[38.25162865291919,55.792448166557556],[38.25144236822629,55.791819454650806],[38.251499530776016,55.79198987079904],[38.24638237475504,55.777081594277455],[38.23998649974324,55.77360907060778],[38.23345054982347,55.771298154198085],[38.21312712957917,55.76600234191222],[38.20413856900127,55.75949964699511],[38.20458306577799,55.738456351298865],[38.223601810596655,55.72434595818156],[38.18527829041619,55.63724018920355],[38.160400533381946,55.615139753488045],[38.127268038818755,55.59451736857601],[38.12932866564316,55.5807350478458],[38.11379928974523,55.568044816111275],[38.097647703446135,55.56307702421123],[38.0920232812577,55.55452271877805],[38.11100286447956,55.542057862004306],[38.10692502695319,55.531717588557996],[37.97559826925421,55.47601311053468],[37.87872253350848,55.43257312917232]]]}},{"type":"Feature","properties":{"key":"zone6","name":"Зона 6","description":"Зона 6; Интервалы доставки:; с 10:00 до 18:00; Временное окно 6 часов","originalTitle":"Зона 6 \nИнтервалы доставки:\nс 10:00 до 18:00\nВременное окно 6 часов","fill":"#177bc9","fillOpacity":0.502,"stroke":"#82cdff","strokeOpacity":0.2,"strokeWidth":5,"zIndex":1000,"balloon":[37.583675731147025,55.71269246533332]},"geometry":{"type":"Polygon","coordinates":[[[38.25514329705011,56.33521788976748],[38.19180024895439,56.36476632850274],[38.09009088310965,56.37572200138493],[38.022756707999804,56.40176474728079],[37.899825704429226,56.44065271097136],[37.65021933350332,56.40682125062245],[37.58188737663997,56.37295956468535],[37.5338221910931,56.40761833196592],[37.485757005546226,56.4060955351456],[37.47545732292895,56.365338007004524],[37.40335954460868,56.37334060237189],[37.35014451775321,56.371244847630116],[37.32903016838798,56.37705551954702],[37.31229318413504,56.389864431365496],[37.29637159142264,56.390173886872844],[37.190220487449245,56.42535202878066],[37.17903031143911,56.428853779383616],[37.180575116089315,56.43897819986537],[37.16486802622692,56.44118684509002],[37.135771348962166,56.432554343831576],[37.11884099172547,56.43124432590145],[37.10762923107582,56.430208837235625],[37.10191063448875,56.42536837893146],[37.0935533016095,56.417112868735565],[37.06488054673673,56.4103198816592],[37.03420472543182,56.41453613751085],[37.02664439237297,56.41863489765406],[36.99161823900184,56.42311375223431],[36.94606647433908,56.41667152418508],[36.8991414186607,56.40413706562554],[36.867322564154215,56.40416450935604],[36.86102617401037,56.38437530276319],[36.78646684612593,56.37142850872192],[36.74987382769156,56.35733028955053],[36.748056810661836,56.34532241786537],[36.725862291404816,56.33207019767704],[36.699658830604406,56.325442354299646],[36.6855548648183,56.30813913224439],[36.65634469786042,56.226620827355966],[36.627159708030455,56.20143886563195],[36.600207593974865,56.140442378982755],[36.51335496529575,56.077207092504416],[36.50277433988621,56.07371512437996],[36.50180675158612,56.05869888625378],[36.500495840532096,56.0204171863769],[36.44562657986871,55.97978753760136],[36.43437001914857,55.93310514604814],[36.44406257194745,55.908007153290484],[36.43057168983696,55.89208493994378],[36.37725536827336,55.856078233782505],[36.33914061715176,55.84429164166107],[36.29919697756405,55.81597985134915],[36.26501477990044,55.7698957172319],[36.25455443421576,55.75074926059225],[36.224605290734836,55.73793331998582],[36.20500794748474,55.71175845405173],[36.210528675115974,55.694010725513],[36.32333389339988,55.64282770681413],[36.3662419757943,55.590114161006106],[36.396790439048175,55.53849756473451],[36.35849231305678,55.530944061980975],[36.34758299615483,55.51022023664876],[36.35727304448724,55.473107669944575],[36.350445506492754,55.428854684438285],[36.51623193019698,55.26898571970956],[36.572155072651235,55.22638596960639],[36.62119557135457,55.20632562523245],[36.639085608214096,55.18795404763052],[36.67688836480023,55.172325138045856],[37.025802822869906,55.05942562261697],[37.12986483781297,55.039660094431134],[37.21984404466226,55.002549210038495],[37.41232663142692,54.97035530866069],[37.4237900760469,55.02768255816456],[37.75806257789545,55.046065853892],[37.77049673636919,55.062090983018884],[37.81588987921798,55.070229997808916],[37.95892903368054,55.076003627269706],[38.0222683837534,55.09858210538004],[38.19395732840032,55.11301546257715],[38.3059994402298,55.15052028531361],[38.39309129103781,55.21482618895142],[38.494530768843774,55.27830946841201],[38.62621514420473,55.31471242778724],[38.7305706962225,55.35559719642181],[38.875583725853026,55.48417985110372],[38.880000909671004,55.56076861627362],[38.94229917831164,55.65456235232481],[38.962343514809334,55.723858193842524],[38.961709921012336,55.8744426826112],[38.89335280362172,55.86079925994461],[38.79635824603479,55.92702181488544],[38.78996238984118,55.971302513868096],[38.769833623491394,56.01245528387756],[38.67211391475869,56.09480441527015],[38.621591458278616,56.10958872994628],[38.4996578689861,56.22395597003961],[38.37908281121028,56.289801978406174],[38.25514329705011,56.33521788976748]],[[38.39407498793576,55.94624967262441],[38.441277152071336,55.8498255879684],[38.42394934609548,55.82449967176347],[38.439055547267365,55.759508289335734],[38.452788457423615,55.739369832369],[38.42806921914238,55.73549585521451],[38.41570960000175,55.7207712199787],[38.43493567422049,55.69983714359673],[38.39236365273611,55.66802681614712],[38.35939557563458,55.63186865307904],[38.404714179150204,55.53775061962874],[38.3711276589529,55.49347751773774],[38.34915500270291,55.48568022209933],[38.31482272731229,55.435740816833025],[38.29559665309352,55.4255891130277],[38.279117160906026,55.41777832604313],[38.24341159449978,55.41699716201287],[38.23242526637477,55.411528579356656],[38.22555881129666,55.40058913303192],[38.17337375270294,55.37713721919791],[37.9952660357226,55.3627997676784],[37.97192008845699,55.36905725409444],[37.86480338923824,55.34402134570408],[37.83459098689448,55.34089073903278],[37.72198112361324,55.33384596540259],[37.47108079511659,55.33759429650633],[37.417656697275326,55.37273847866855],[37.35173872852533,55.38915811871128],[37.23775557422844,55.39853769681701],[37.200676716806576,55.408696384527445],[37.19381026172844,55.4180713071176],[37.055794514658146,55.48129361060188],[36.978203572275326,55.530396192573654],[36.99330977344721,55.53974209297388],[36.985070027353444,55.552199823961615],[37.0036094560645,55.59304891065043],[37.009445942880916,55.596353874626764],[37.00292281055669,55.60898792380991],[37.01940230274419,55.62278352356599],[37.02111891651373,55.630359314034635],[36.98507002735357,55.63113623503303],[36.96315884863566,55.667004439636344],[36.90136075293253,55.68330120799781],[36.87320828711224,55.71005967175338],[36.87114835058878,55.718975072182005],[36.88144803320598,55.72478836290856],[36.878701451174734,55.73796193805189],[36.92226448551904,55.78913033079507],[36.91814461247217,55.82432064010582],[36.92775764958153,55.852913388963955],[36.94011726872216,55.8629544776547],[36.94904366032373,55.927772558915265],[37.02114143864408,55.99248194694687],[37.03350105778471,56.02018129357597],[37.13512459294095,56.054393210372425],[37.14336433903471,56.06130877216236],[37.13375130192533,56.074752133012026],[37.18936958805815,56.10814809498289],[37.22232857243315,56.11505397414858],[37.340431599776906,56.125793979549535],[37.37613716618323,56.1346138746844],[37.49567785755895,56.138364111245686],[37.48600044743323,56.1541637886693],[37.48806038395666,56.15837912779383],[37.50042000309729,56.16374343318869],[37.51003304020667,56.17561886117861],[37.5237659503629,56.19208512422956],[37.52307930485509,56.20586537762568],[37.54505196110511,56.205482659934304],[37.61028328434729,56.184427279669215],[37.723579793136395,56.15799593436332],[37.84631767765799,56.14228169775034],[37.86468544499198,56.13748948832984],[37.8737834979705,56.13317598694824],[37.938156514328,56.11936951684533],[37.999954610031125,56.08559941252588],[38.01214256779478,56.08128006692772],[38.06346931950377,56.0738880586686],[38.081665425460805,56.071007669974165],[38.16474953190611,56.044497949864784],[38.19564857975767,56.03959741123404],[38.218136220138554,56.0283526372647],[38.266287236374104,56.01220054125154],[38.27452698246784,56.00758441050834],[38.28860321537801,56.00681500153249],[38.29684296147175,56.0016210884773],[38.31400909916706,56.00046679036535],[38.36310425297566,55.96466637282374],[38.3637908984836,55.9585038053819],[38.38610687748751,55.95176236882262],[38.39880981938203,55.94367108867616],[38.40327301518282,55.924399301455956],[38.406706242721874,55.910517653028066],[38.413916020553906,55.90222484311965],[38.423529057663266,55.897595523700105],[38.42593231694059,55.88929993893967],[38.408766179245305,55.90685360775801],[38.399743228119156,55.93720406834454],[38.34677496449303,55.97985193140334],[38.25731792942824,56.015806507990725],[38.0124858905487,56.08147204817102],[37.99703636662291,56.086943109745114],[38.316660421456504,55.99782253327274],[38.39407498793576,55.94624967262441]]]}}]}